[{"OBJECT_NAME":"STARLINK-11225 [DTC]","OBJECT_ID":"2024-154K","EPOCH":"2026-03-09T10:15:45.060768","MEAN_MOTION":15.69711449,"ECCENTRICITY":8.774e-5,"INCLINATION":53.1592,"RA_OF_ASC_NODE":132.5262,"ARG_OF_PERICENTER":77.9573,"MEAN_ANOMALY":282.1544,"EPHEMERIS_TYPE":0,"CLASSIFICATION_TYPE":"U","NORAD_CAT_ID":60912,"ELEMENT_SET_NO":999,"REV_AT_EPOCH":8846,"BSTAR":-3.146199e-6,"MEAN_MOTION_DOT":-9.69e-6,"MEAN_MOTION_DDOT":0},{"OBJECT_NAME":"SZ-21 MODULE","OBJECT_ID":"2025-246C","EPOCH":"2026-03-08T17:40:24.022560","MEAN_MOTION":15.68463397,"ECCENTRICITY":0.00013651,"INCLINATION":41.4736,"RA_OF_ASC_NODE":209.2286,"ARG_OF_PERICENTER":296.9264,"MEAN_ANOMALY":63.1439,"EPHEMERIS_TYPE":0,"CLASSIFICATION_TYPE":"U","NORAD_CAT_ID":66515,"ELEMENT_SET_NO":999,"REV_AT_EPOCH":1792,"BSTAR":0.0004111263,"MEAN_MOTION_DOT":0.00047754,"MEAN_MOTION_DDOT":0}]
